#aV2015  9 23  0  0  0.00000000     288 DD+AD WGS84 FIT  NGA
## 1863 259200.00000000   300.00000000 57288 0.0000000000000
+   31     1  2  3  4  5  6  7  8  9 11 12 13 14 15 16 17 18
+         19 20 21 22 23 24 25 26 27 28 29 30 31 32  0  0  0
+          0  0  0  0  0  0  0  0  0  0  0  0  0  0  0  0  0
+          0  0  0  0  0  0  0  0  0  0  0  0  0  0  0  0  0
+          0  0  0  0  0  0  0  0  0  0  0  0  0  0  0  0  0
++         2  2  2  2  2  2  2  2  2  2  2  2  2  2  2  2  2
++         2  2  2  2  2  2  2  2  2  2  2  2  2  2  0  0  0
++         0  0  0  0  0  0  0  0  0  0  0  0  0  0  0  0  0
++         0  0  0  0  0  0  0  0  0  0  0  0  0  0  0  0  0
++         0  0  0  0  0  0  0  0  0  0  0  0  0  0  0  0  0
%c cc cc ccc ccc cccc cccc cccc cccc ccccc ccccc ccccc ccccc
%c cc cc ccc ccc cccc cccc cccc cccc ccccc ccccc ccccc ccccc
%f  0.0000000  0.000000000  0.00000000000  0.000000000000000
%f  0.0000000  0.000000000  0.00000000000  0.000000000000000
%i    0    0    0    0      0      0      0      0         0
%i    0    0    0    0      0      0      0      0         0
/*      NGA, ST. LOUIS,MO.                                  
/*   EPHEMERIS COMPUTED FROM  1 DAYS OF DATA                
/*   EPOCHA SMOOTHER                                       
/* CCCCCCCCCCCCCCCCCCCCCCCCCCCCCCCCCCCCCCCCCCCCCCCCCCCCCCCCC
*  2015  9 23 18  5  0.00000000
P  1  22842.701073  13721.714006   1060.183543      1.038596                    
V  1   -192.987048   2942.353700 -31631.015337      0.007078                    
P  2  -7069.882107 -19052.956033  17704.861979    590.113609                    
V  2  19497.821563   9499.714354  17975.278948      0.015319                    
P  3  13284.560908  12023.382565  19605.722910     21.239177                    
V  3  -2202.881865  24823.728712 -13759.730681      0.000800                    
P  4  18152.092511  17937.101810  -8175.630305    -23.920211                    
V  4  -9960.123963  -2604.473863 -28816.793796     -0.043506                    
P  5  -2642.667948 -25904.594190  -4739.378796   -192.374393                    
V  5   3518.175521  -5888.507962  30793.044264      0.040313                    
P  6   5766.252945 -14202.093610  21687.923342     63.686282                    
V  6  23475.347906  14400.421472   3180.583223      0.072629                    
P  7  22244.718879   2923.773122 -14391.490691    484.275890                    
V  7  14306.156868  11563.840719  23872.334992     -0.007129                    
P  8  12095.185802  10365.647561 -21206.186588     -6.296789                    
V  8 -23558.020465  13279.639162  -6945.253856     -0.013490                    
P  9  24438.109943  -6609.088432   8056.679171     -7.864482                    
V  9  -7741.046748   7241.147726  29384.502334      0.023532                    
P 11  22929.722893  11333.514386  -7871.594143   -605.989966                    
V 11 -10081.171866   2310.751348 -27918.924815     -0.022726                    
P 12 -10953.103348 -15372.917995  18667.501841    330.746008                    
V 12   2981.459272 -23608.880729 -17389.307763      0.034075                    
P 13   -970.942949 -15490.812305 -21698.261177   -151.408152                    
V 13  25445.149212  -9577.916708   5628.050954     -0.029391                    
P 14 -20508.391473  14882.389851   7945.723832     32.726902                    
V 14  -9996.770762   1536.457092 -29775.111103     -0.026143                    
P 15 -13762.838552  -9690.751679 -20702.864875   -273.156856                    
V 15  22039.697738 -14028.730658  -7791.069733     -0.020356                    
P 16    369.217417  25945.329459  -4726.195556    -83.543346                    
V 16  -2724.941040   5687.874899  31904.935801      0.039069                    
P 17  19630.120610 -15690.864501   8553.366742   -188.694316                    
V 17  10484.184433  -2361.597439 -29642.843587     -0.013096                    
P 18 -15000.821627   8165.583450 -19769.876204    436.576402                    
V 18  -1128.314432 -26455.652948 -10103.137203      0.032704                    
P 19  19890.589369   4705.827561 -17437.465815   -520.527197                    
V 19 -19403.744001   9320.791658 -19447.436344     -0.005897                    
P 20 -13559.221961 -15066.174777 -17277.139207    357.638727                    
V 20   1451.445996 -21859.330413  18162.994171      0.030447                    
P 21 -21095.730615    745.958232 -15604.616586   -481.839386                    
V 21 -16777.060943 -12973.462849  20786.506040     -0.027292                    
P 22  -9905.913779  20888.668560 -12682.805968    394.164518                    
V 22  -3137.247687 -16693.581184 -24760.900651      0.038456                    
P 23  19346.563369   4476.387995  18009.690021   -134.898617                    
V 23 -19144.899132  11755.534878  17376.817503     -0.021998                    
P 24 -22072.593302 -14827.289546  -1774.890083     -5.174131                    
V 24   3414.392312  -1382.035050 -31351.426082     -0.006188                    
P 25 -14745.290018  -1016.204979  21967.847665    -42.756403                    
V 25   1051.495342 -28062.875478   -430.948083     -0.052349                    
P 26  -5029.176572  25385.982131   5956.127440    -61.638429                    
V 26  -2461.821116  -7656.817805  30547.727363     -0.116229                    
P 27   -800.402148  16579.791414 -20734.279097     22.006295                    
V 27 -23604.837986  11567.620010  10291.477575      0.029908                    
P 28  11948.047799 -17715.265156 -15098.147998    469.598145                    
V 28   -624.552715  20335.943802 -23479.479279      0.026557                    
P 29 -24232.149553   3470.956981  10272.078053    635.861410                    
V 29  10932.537394  -7384.611587  28353.824554      0.020804                    
P 30  15436.739134  -6713.356445 -20564.228421     29.544478                    
V 30  20484.729548  16216.538421  10002.000037      0.064948                    
P 31  -5636.579920  14133.363885  21869.004055    301.793678                    
V 31 -22980.766574 -15027.296001   4142.061400     -0.014464                    
P 32   6039.529195  23099.694829  12139.651019    -34.827807                    
V 32  -4105.020164  14937.577775 -25741.187438      0.111017                    
EOF
